{
  "type": "FeatureCollection",
  "features": [
    {
      "type": "Feature",
      "properties": {
        "norad_id": 63632,
        "name": "SHENZHOU-20 (SZ-20)",
        "group": "stations",
        "lat": -36.297586102887195,
        "lon": -76.41089014281388,
        "alt_km": 395.7191623776771,
        "timestamp": "2025-12-07T16:44:02.707281+00:00",
        "meta_object_name": "SHENZHOU-20 (SZ-20)",
        "meta_object_id": "2025-082A",
        "meta_epoch": "2025-12-06T21:14:35.052288",
        "meta_mean_motion": 15.58811356,
        "meta_eccentricity": 0.00094534,
        "meta_inclination": 41.4683,
        "meta_ra_of_asc_node": 52.2413,
        "meta_arg_of_pericenter": 344.5349,
        "meta_mean_anomaly": 15.5199,
        "meta_ephemeris_type": 0,
        "meta_classification_type": "U",
        "meta_norad_cat_id": 63632,
        "meta_element_set_no": 999,
        "meta_rev_at_epoch": 25530,
        "meta_bstar": 0.00035334049,
        "meta_mean_motion_dot": 0.00027906,
        "meta_mean_motion_ddot": 0,
        "tle_line1": "1 63632U 25082A   25340.88512792  .00027906  00000+0  35334-3 0  9997",
        "tle_line2": "2 63632  41.4683  52.2413 0009453 344.5349  15.5199 15.58811356255306"
      },
      "geometry": {
        "type": "Point",
        "coordinates": [
          -76.41089014281388,
          -36.297586102887195
        ]
      }
    },
    {
      "type": "Feature",
      "properties": {
        "norad_id": 64751,
        "name": "PROGRESS-MS 31",
        "group": "stations",
        "lat": -28.263394035661772,
        "lon": 142.2327657472347,
        "alt_km": 422.7217885520058,
        "timestamp": "2025-12-07T16:44:02.707292+00:00",
        "meta_object_name": "PROGRESS-MS 31",
        "meta_object_id": "2025-146A",
        "meta_epoch": "2025-12-06T20:46:13.238400",
        "meta_mean_motion": 15.49374779,
        "meta_eccentricity": 0.00034973,
        "meta_inclination": 51.6304,
        "meta_ra_of_asc_node": 171.5636,
        "meta_arg_of_pericenter": 213.1314,
        "meta_mean_anomaly": 146.9456,
        "meta_ephemeris_type": 0,
        "meta_classification_type": "U",
        "meta_norad_cat_id": 64751,
        "meta_element_set_no": 999,
        "meta_rev_at_epoch": 675,
        "meta_bstar": 0.00025393652,
        "meta_mean_motion_dot": 0.0001375,
        "meta_mean_motion_ddot": 0,
        "tle_line1": "1 64751U 25146A   25340.86543100  .00013750  00000+0  25394-3 0  9993",
        "tle_line2": "2 64751  51.6304 171.5636 0003497 213.1314 146.9456 15.49374779  6750"
      },
      "geometry": {
        "type": "Point",
        "coordinates": [
          142.2327657472347,
          -28.263394035661772
        ]
      }
    },
    {
      "type": "Feature",
      "properties": {
        "norad_id": 64786,
        "name": "TIANZHOU-9",
        "group": "stations",
        "lat": -36.297586627686684,
        "lon": -76.41088849644447,
        "alt_km": 395.71916225215955,
        "timestamp": "2025-12-07T16:44:02.707303+00:00",
        "meta_object_name": "TIANZHOU-9",
        "meta_object_id": "2025-149A",
        "meta_epoch": "2025-12-06T21:14:35.052288",
        "meta_mean_motion": 15.58811356,
        "meta_eccentricity": 0.00094534,
        "meta_inclination": 41.4683,
        "meta_ra_of_asc_node": 52.2413,
        "meta_arg_of_pericenter": 344.5349,
        "meta_mean_anomaly": 15.5199,
        "meta_ephemeris_type": 0,
        "meta_classification_type": "U",
        "meta_norad_cat_id": 64786,
        "meta_element_set_no": 999,
        "meta_rev_at_epoch": 25530,
        "meta_bstar": 0.00035334049,
        "meta_mean_motion_dot": 0.00027906,
        "meta_mean_motion_ddot": 0,
        "tle_line1": "1 64786U 25149A   25340.88512792  .00027906  00000+0  35334-3 0  9992",
        "tle_line2": "2 64786  41.4683  52.2413 0009453 344.5349  15.5199 15.58811356255307"
      },
      "geometry": {
        "type": "Point",
        "coordinates": [
          -76.41088849644447,
          -36.297586627686684
        ]
      }
    },
    {
      "type": "Feature",
      "properties": {
        "norad_id": 65077,
        "name": "CREW DRAGON 11",
        "group": "stations",
        "lat": -28.263393074775987,
        "lon": 142.2327668306973,
        "alt_km": 422.7217885405753,
        "timestamp": "2025-12-07T16:44:02.707313+00:00",
        "meta_object_name": "CREW DRAGON 11",
        "meta_object_id": "2025-166A",
        "meta_epoch": "2025-12-06T20:46:13.238400",
        "meta_mean_motion": 15.49374779,
        "meta_eccentricity": 0.00034973,
        "meta_inclination": 51.6304,
        "meta_ra_of_asc_node": 171.5636,
        "meta_arg_of_pericenter": 213.1314,
        "meta_mean_anomaly": 146.9456,
        "meta_ephemeris_type": 0,
        "meta_classification_type": "U",
        "meta_norad_cat_id": 65077,
        "meta_element_set_no": 999,
        "meta_rev_at_epoch": 214,
        "meta_bstar": 0.00025393652,
        "meta_mean_motion_dot": 0.0001375,
        "meta_mean_motion_ddot": 0,
        "tle_line1": "1 65077U 25166A   25340.86543100  .00013750  00000+0  25394-3 0  9997",
        "tle_line2": "2 65077  51.6304 171.5636 0003497 213.1314 146.9456 15.49374779  2141"
      },
      "geometry": {
        "type": "Point",
        "coordinates": [
          142.2327668306973,
          -28.263393074775987
        ]
      }
    },
    {
      "type": "Feature",
      "properties": {
        "norad_id": 65304,
        "name": "DRAGON CRS-33",
        "group": "stations",
        "lat": -28.263392525698695,
        "lon": 142.23276744981845,
        "alt_km": 422.7217885340424,
        "timestamp": "2025-12-07T16:44:02.707325+00:00",
        "meta_object_name": "DRAGON CRS-33",
        "meta_object_id": "2025-186A",
        "meta_epoch": "2025-12-06T20:46:13.238400",
        "meta_mean_motion": 15.49374779,
        "meta_eccentricity": 0.00034973,
        "meta_inclination": 51.6304,
        "meta_ra_of_asc_node": 171.5636,
        "meta_arg_of_pericenter": 213.1314,
        "meta_mean_anomaly": 146.9456,
        "meta_ephemeris_type": 0,
        "meta_classification_type": "U",
        "meta_norad_cat_id": 65304,
        "meta_element_set_no": 999,
        "meta_rev_at_epoch": 11,
        "meta_bstar": 0.00025393652,
        "meta_mean_motion_dot": 0.0001375,
        "meta_mean_motion_ddot": 0,
        "tle_line1": "1 65304U 25186A   25340.86543100  .00013750  00000+0  25394-3 0  9992",
        "tle_line2": "2 65304  51.6304 171.5636 0003497 213.1314 146.9456 15.49374779   119"
      },
      "geometry": {
        "type": "Point",
        "coordinates": [
          142.23276744981845,
          -28.263392525698695
        ]
      }
    },
    {
      "type": "Feature",
      "properties": {
        "norad_id": 65586,
        "name": "PROGRESS-MS 32",
        "group": "stations",
        "lat": -28.263392022377055,
        "lon": 142.232768017347,
        "alt_km": 422.7217885280543,
        "timestamp": "2025-12-07T16:44:02.707336+00:00",
        "meta_object_name": "PROGRESS-MS 32",
        "meta_object_id": "2025-204A",
        "meta_epoch": "2025-12-06T20:46:13.238400",
        "meta_mean_motion": 15.49374779,
        "meta_eccentricity": 0.00034973,
        "meta_inclination": 51.6304,
        "meta_ra_of_asc_node": 171.5636,
        "meta_arg_of_pericenter": 213.1314,
        "meta_mean_anomaly": 146.9456,
        "meta_ephemeris_type": 0,
        "meta_classification_type": "U",
        "meta_norad_cat_id": 65586,
        "meta_element_set_no": 999,
        "meta_rev_at_epoch": 27,
        "meta_bstar": 0.00025393652,
        "meta_mean_motion_dot": 0.0001375,
        "meta_mean_motion_ddot": 0,
        "tle_line1": "1 65586U 25204A   25340.86543100  .00013750  00000+0  25394-3 0  9995",
        "tle_line2": "2 65586  51.6304 171.5636 0003497 213.1314 146.9456 15.49374779   278"
      },
      "geometry": {
        "type": "Point",
        "coordinates": [
          142.232768017347,
          -28.263392022377055
        ]
      }
    },
    {
      "type": "Feature",
      "properties": {
        "norad_id": 65616,
        "name": "CYGNUS NG-23",
        "group": "stations",
        "lat": -28.2633916105692,
        "lon": 142.23276848168774,
        "alt_km": 422.7217885231548,
        "timestamp": "2025-12-07T16:44:02.707345+00:00",
        "meta_object_name": "CYGNUS NG-23",
        "meta_object_id": "2025-208A",
        "meta_epoch": "2025-12-06T20:46:13.238400",
        "meta_mean_motion": 15.49374779,
        "meta_eccentricity": 0.00034973,
        "meta_inclination": 51.6304,
        "meta_ra_of_asc_node": 171.5636,
        "meta_arg_of_pericenter": 213.1314,
        "meta_mean_anomaly": 146.9456,
        "meta_ephemeris_type": 0,
        "meta_classification_type": "U",
        "meta_norad_cat_id": 65616,
        "meta_element_set_no": 999,
        "meta_rev_at_epoch": 22,
        "meta_bstar": 0.00025393652,
        "meta_mean_motion_dot": 0.0001375,
        "meta_mean_motion_ddot": 0,
        "tle_line1": "1 65616U 25208A   25340.86543100  .00013750  00000+0  25394-3 0  9993",
        "tle_line2": "2 65616  51.6304 171.5636 0003497 213.1314 146.9456 15.49374779   227"
      },
      "geometry": {
        "type": "Point",
        "coordinates": [
          142.23276848168774,
          -28.2633916105692
        ]
      }
    }
  ]
}